RESOURCESAT-2A          
1 41877U 16074A   26117.32499591  .00000433  00000+0  21761-3 0  9993
2 41877  98.7537 191.2413 0001600 197.1485 162.9638 14.21619142487073
CARTOSAT-2D             
1 41948U 17008A   26117.31237186  .00005639  00000+0  27038-3 0  9995
2 41948  97.4147 177.5559 0005548  69.9068 290.2763 15.19281732509854
SENTINEL-2B             
1 42063U 17013A   26117.29837610  .00000047  00000+0  34659-4 0  9991
2 42063  98.5648 192.7934 0001230  90.6451 269.4873 14.30814348477365
CARTOSAT-2E             
1 42767U 17036C   26116.07807962  .00000075  00000+0  67334-5 0  9997
2 42767  97.4315 176.7266 0004286 122.6561 237.5088 15.19301263490237
FORMOSAT-5              
1 42920U 17049A   26117.29547283  .00000197  00000+0  60925-4 0  9997
2 42920  98.2259 193.7335 0010388 235.4062 124.6153 14.50878237459293
SENTINEL-5P             
1 42969U 17064A   26117.24034003  .00000056  00000+0  47484-4 0  9992
2 42969  98.7943  59.7381 0001257  81.1564 278.9754 14.19510061442331
SKYSAT-C11              
1 42987U 17068A   26117.14176681  .00034290  00000+0  50685-3 0  9997
2 42987  97.4283 263.8761 0001543 138.8179 221.3192 15.55253770475307
SKYSAT-C10              
1 42988U 17068B   26117.28759009  .00011910  00000+0  36738-3 0  9991
2 42988  97.4424 253.6971 0001651 109.6384 250.5037 15.33734947474553
SKYSAT-C9               
1 42989U 17068C   26117.32699441  .00016229  00000+0  40413-3 0  9993
2 42989  97.4346 254.2000 0007522 326.3097  33.7670 15.40303592474920
SKYSAT-C8               
1 42990U 17068D   26117.26904761  .00013713  00000+0  39395-3 0  9994
2 42990  97.4442 253.2889 0001201 111.9627 248.1744 15.35947505474496
SKYSAT-C7               
1 42991U 17068E   26117.32588642  .00013707  00000+0  39440-3 0  9992
2 42991  97.4454 254.3326 0004652 291.4496  68.6251 15.35890723474564
SKYSAT-C6               
1 42992U 17068F   26117.13366410  .00012249  00000+0  37997-3 0  9994
2 42992  97.4488 254.2764 0001735 359.2713   0.8526 15.33545988474494
CARTOSAT-2F             
1 43111U 18004A   26117.29536907  .00004111  00000+0  19805-3 0  9993
2 43111  97.4078 177.5515 0002362  94.9645 265.1859 15.19284445459601
GAOFEN-1 02             
1 43259U 18031A   26117.33497407  .00001036  00000+0  15640-3 0  9998
2 43259  98.0560 179.9944 0003484 148.3405 211.8015 14.76445908435198
GAOFEN-1 03             
1 43260U 18031B   26117.31311818  .00000799  00000+0  12232-3 0  9998
2 43260  98.0550 179.8362 0001577 204.7838 155.3296 14.76432913435184
GAOFEN-1 04             
1 43262U 18031D   26117.28874155  .00001158  00000+0  17373-3 0  9995
2 43262  98.0562 179.9967 0000711 100.6711 259.4579 14.76468587435179
