[{"OBJECT_NAME":"RESOURCESAT-2A","OBJECT_ID":"2016-074A","EPOCH":"2026-04-27T07:47:59.646624","MEAN_MOTION":14.21619142,"ECCENTRICITY":0.00016002,"INCLINATION":98.7537,"RA_OF_ASC_NODE":191.2413,"ARG_OF_PERICENTER":197.1485,"MEAN_ANOMALY":162.9638,"EPHEMERIS_TYPE":0,"CLASSIFICATION_TYPE":"U","NORAD_CAT_ID":41877,"ELEMENT_SET_NO":999,"REV_AT_EPOCH":48707,"BSTAR":0.00021761462,"MEAN_MOTION_DOT":4.33e-6,"MEAN_MOTION_DDOT":0},{"OBJECT_NAME":"CARTOSAT-2D","OBJECT_ID":"2017-008A","EPOCH":"2026-04-27T07:29:48.928704","MEAN_MOTION":15.19281732,"ECCENTRICITY":0.00055489,"INCLINATION":97.4147,"RA_OF_ASC_NODE":177.5559,"ARG_OF_PERICENTER":69.9068,"MEAN_ANOMALY":290.2763,"EPHEMERIS_TYPE":0,"CLASSIFICATION_TYPE":"U","NORAD_CAT_ID":41948,"ELEMENT_SET_NO":999,"REV_AT_EPOCH":50985,"BSTAR":0.00027038248,"MEAN_MOTION_DOT":5.639e-5,"MEAN_MOTION_DDOT":0},{"OBJECT_NAME":"SENTINEL-2B","OBJECT_ID":"2017-013A","EPOCH":"2026-04-27T07:09:39.695040","MEAN_MOTION":14.30814348,"ECCENTRICITY":0.00012301,"INCLINATION":98.5648,"RA_OF_ASC_NODE":192.7934,"ARG_OF_PERICENTER":90.6451,"MEAN_ANOMALY":269.4873,"EPHEMERIS_TYPE":0,"CLASSIFICATION_TYPE":"U","NORAD_CAT_ID":42063,"ELEMENT_SET_NO":999,"REV_AT_EPOCH":47736,"BSTAR":3.4659472e-5,"MEAN_MOTION_DOT":4.7e-7,"MEAN_MOTION_DDOT":0},{"OBJECT_NAME":"CARTOSAT-2E","OBJECT_ID":"2017-036C","EPOCH":"2026-04-26T01:52:26.079168","MEAN_MOTION":15.19301263,"ECCENTRICITY":0.00042867,"INCLINATION":97.4315,"RA_OF_ASC_NODE":176.7266,"ARG_OF_PERICENTER":122.6561,"MEAN_ANOMALY":237.5088,"EPHEMERIS_TYPE":0,"CLASSIFICATION_TYPE":"U","NORAD_CAT_ID":42767,"ELEMENT_SET_NO":999,"REV_AT_EPOCH":49023,"BSTAR":6.733428e-6,"MEAN_MOTION_DOT":7.5e-7,"MEAN_MOTION_DDOT":0},{"OBJECT_NAME":"FORMOSAT-5","OBJECT_ID":"2017-049A","EPOCH":"2026-04-27T07:05:28.852512","MEAN_MOTION":14.50878237,"ECCENTRICITY":0.00103888,"INCLINATION":98.2259,"RA_OF_ASC_NODE":193.7335,"ARG_OF_PERICENTER":235.4062,"MEAN_ANOMALY":124.6153,"EPHEMERIS_TYPE":0,"CLASSIFICATION_TYPE":"U","NORAD_CAT_ID":42920,"ELEMENT_SET_NO":999,"REV_AT_EPOCH":45929,"BSTAR":6.0924718e-5,"MEAN_MOTION_DOT":1.97e-6,"MEAN_MOTION_DDOT":0},{"OBJECT_NAME":"SENTINEL-5P","OBJECT_ID":"2017-064A","EPOCH":"2026-04-27T05:46:05.378592","MEAN_MOTION":14.19510061,"ECCENTRICITY":0.00012572,"INCLINATION":98.7943,"RA_OF_ASC_NODE":59.7381,"ARG_OF_PERICENTER":81.1564,"MEAN_ANOMALY":278.9754,"EPHEMERIS_TYPE":0,"CLASSIFICATION_TYPE":"U","NORAD_CAT_ID":42969,"ELEMENT_SET_NO":999,"REV_AT_EPOCH":44233,"BSTAR":4.748411e-5,"MEAN_MOTION_DOT":5.6e-7,"MEAN_MOTION_DDOT":0},{"OBJECT_NAME":"SKYSAT-C11","OBJECT_ID":"2017-068A","EPOCH":"2026-04-27T03:24:08.652384","MEAN_MOTION":15.5525377,"ECCENTRICITY":0.00015439,"INCLINATION":97.4283,"RA_OF_ASC_NODE":263.8761,"ARG_OF_PERICENTER":138.8179,"MEAN_ANOMALY":221.3192,"EPHEMERIS_TYPE":0,"CLASSIFICATION_TYPE":"U","NORAD_CAT_ID":42987,"ELEMENT_SET_NO":999,"REV_AT_EPOCH":47530,"BSTAR":0.00050685383,"MEAN_MOTION_DOT":0.0003429,"MEAN_MOTION_DDOT":0},{"OBJECT_NAME":"SKYSAT-C10","OBJECT_ID":"2017-068B","EPOCH":"2026-04-27T06:54:07.783776","MEAN_MOTION":15.33734947,"ECCENTRICITY":0.00016518,"INCLINATION":97.4424,"RA_OF_ASC_NODE":253.6971,"ARG_OF_PERICENTER":109.6384,"MEAN_ANOMALY":250.5037,"EPHEMERIS_TYPE":0,"CLASSIFICATION_TYPE":"U","NORAD_CAT_ID":42988,"ELEMENT_SET_NO":999,"REV_AT_EPOCH":47455,"BSTAR":0.00036737963,"MEAN_MOTION_DOT":0.0001191,"MEAN_MOTION_DDOT":0},{"OBJECT_NAME":"SKYSAT-C9","OBJECT_ID":"2017-068C","EPOCH":"2026-04-27T07:50:52.317024","MEAN_MOTION":15.40303592,"ECCENTRICITY":0.00075228,"INCLINATION":97.4346,"RA_OF_ASC_NODE":254.2,"ARG_OF_PERICENTER":326.3097,"MEAN_ANOMALY":33.767,"EPHEMERIS_TYPE":0,"CLASSIFICATION_TYPE":"U","NORAD_CAT_ID":42989,"ELEMENT_SET_NO":999,"REV_AT_EPOCH":47492,"BSTAR":0.00040412942,"MEAN_MOTION_DOT":0.00016229,"MEAN_MOTION_DDOT":0},{"OBJECT_NAME":"SKYSAT-C8","OBJECT_ID":"2017-068D","EPOCH":"2026-04-27T06:27:25.713504","MEAN_MOTION":15.35947505,"ECCENTRICITY":0.00012012,"INCLINATION":97.4442,"RA_OF_ASC_NODE":253.2889,"ARG_OF_PERICENTER":111.9627,"MEAN_ANOMALY":248.1744,"EPHEMERIS_TYPE":0,"CLASSIFICATION_TYPE":"U","NORAD_CAT_ID":42990,"ELEMENT_SET_NO":999,"REV_AT_EPOCH":47449,"BSTAR":0.00039395177,"MEAN_MOTION_DOT":0.00013713,"MEAN_MOTION_DDOT":0},{"OBJECT_NAME":"SKYSAT-C7","OBJECT_ID":"2017-068E","EPOCH":"2026-04-27T07:49:16.586688","MEAN_MOTION":15.35890723,"ECCENTRICITY":0.0004652,"INCLINATION":97.4454,"RA_OF_ASC_NODE":254.3326,"ARG_OF_PERICENTER":291.4496,"MEAN_ANOMALY":68.6251,"EPHEMERIS_TYPE":0,"CLASSIFICATION_TYPE":"U","NORAD_CAT_ID":42991,"ELEMENT_SET_NO":999,"REV_AT_EPOCH":47456,"BSTAR":0.00039439734,"MEAN_MOTION_DOT":0.00013707,"MEAN_MOTION_DDOT":0},{"OBJECT_NAME":"SKYSAT-C6","OBJECT_ID":"2017-068F","EPOCH":"2026-04-27T03:12:28.578240","MEAN_MOTION":15.33545988,"ECCENTRICITY":0.00017355,"INCLINATION":97.4488,"RA_OF_ASC_NODE":254.2764,"ARG_OF_PERICENTER":359.2713,"MEAN_ANOMALY":0.8526,"EPHEMERIS_TYPE":0,"CLASSIFICATION_TYPE":"U","NORAD_CAT_ID":42992,"ELEMENT_SET_NO":999,"REV_AT_EPOCH":47449,"BSTAR":0.00037997413,"MEAN_MOTION_DOT":0.00012249,"MEAN_MOTION_DDOT":0},{"OBJECT_NAME":"CARTOSAT-2F","OBJECT_ID":"2018-004A","EPOCH":"2026-04-27T07:05:19.887648","MEAN_MOTION":15.19284445,"ECCENTRICITY":0.00023621,"INCLINATION":97.4078,"RA_OF_ASC_NODE":177.5515,"ARG_OF_PERICENTER":94.9645,"MEAN_ANOMALY":265.1859,"EPHEMERIS_TYPE":0,"CLASSIFICATION_TYPE":"U","NORAD_CAT_ID":43111,"ELEMENT_SET_NO":999,"REV_AT_EPOCH":45960,"BSTAR":0.00019805312,"MEAN_MOTION_DOT":4.111e-5,"MEAN_MOTION_DDOT":0},{"OBJECT_NAME":"GAOFEN-1 02","OBJECT_ID":"2018-031A","EPOCH":"2026-04-27T08:02:21.759648","MEAN_MOTION":14.76445908,"ECCENTRICITY":0.00034841,"INCLINATION":98.056,"RA_OF_ASC_NODE":179.9944,"ARG_OF_PERICENTER":148.3405,"MEAN_ANOMALY":211.8015,"EPHEMERIS_TYPE":0,"CLASSIFICATION_TYPE":"U","NORAD_CAT_ID":43259,"ELEMENT_SET_NO":999,"REV_AT_EPOCH":43519,"BSTAR":0.00015639971,"MEAN_MOTION_DOT":1.036e-5,"MEAN_MOTION_DDOT":0},{"OBJECT_NAME":"GAOFEN-1 03","OBJECT_ID":"2018-031B","EPOCH":"2026-04-27T07:30:53.410752","MEAN_MOTION":14.76432913,"ECCENTRICITY":0.00015771,"INCLINATION":98.055,"RA_OF_ASC_NODE":179.8362,"ARG_OF_PERICENTER":204.7838,"MEAN_ANOMALY":155.3296,"EPHEMERIS_TYPE":0,"CLASSIFICATION_TYPE":"U","NORAD_CAT_ID":43260,"ELEMENT_SET_NO":999,"REV_AT_EPOCH":43518,"BSTAR":0.00012232187,"MEAN_MOTION_DOT":7.99e-6,"MEAN_MOTION_DDOT":0},{"OBJECT_NAME":"GAOFEN-1 04","OBJECT_ID":"2018-031D","EPOCH":"2026-04-27T06:55:47.269920","MEAN_MOTION":14.76468587,"ECCENTRICITY":7.116e-5,"INCLINATION":98.0562,"RA_OF_ASC_NODE":179.9967,"ARG_OF_PERICENTER":100.6711,"MEAN_ANOMALY":259.4579,"EPHEMERIS_TYPE":0,"CLASSIFICATION_TYPE":"U","NORAD_CAT_ID":43262,"ELEMENT_SET_NO":999,"REV_AT_EPOCH":43517,"BSTAR":0.00017372525,"MEAN_MOTION_DOT":1.158e-5,"MEAN_MOTION_DDOT":0}]
